{"type": "FeatureCollection", "features": [{"type": "Feature", "properties": {"norad_id": 22675, "name": "COSMOS 2251", "group": "cosmos-2251-debris", "lat": 26.988867214025326, "lon": -57.054121619224716, "alt_km": 762.6900488423589, "timestamp": "2025-12-24T09:46:31.397130+00:00", "meta": {"OBJECT_NAME": "COSMOS 2251", "OBJECT_ID": "1993-036A", "EPOCH": "2025-12-24T02:56:38.760576", "MEAN_MOTION": 14.33208139, "ECCENTRICITY": 0.0024415, "INCLINATION": 74.04, "RA_OF_ASC_NODE": 295.0854, "ARG_OF_PERICENTER": 14.22, "MEAN_ANOMALY": 345.9633, "EPHEMERIS_TYPE": 0, "CLASSIFICATION_TYPE": "U", "NORAD_CAT_ID": 22675, "ELEMENT_SET_NO": 999, "REV_AT_EPOCH": 69936, "BSTAR": 5.7495e-05, "MEAN_MOTION_DOT": 1.32e-06, "MEAN_MOTION_DDOT": 0}, "tle": {"line1": "1 22675U 93036A   25358.12267084  .00000132  00000+0  57495-4 0  9995", "line2": "2 22675  74.0400 295.0854 0024415  14.2200 345.9633 14.33208139699367"}}, "geometry": {"type": "Point", "coordinates": [-57.054121619224716, 26.988867214025326]}}, {"type": "Feature", "properties": {"norad_id": 33757, "name": "COSMOS 2251 DEB", "group": "cosmos-2251-debris", "lat": 39.03065692064982, "lon": -44.27343504955805, "alt_km": 779.2352437795871, "timestamp": "2025-12-24T09:46:31.397156+00:00", "meta": {"OBJECT_NAME": "COSMOS 2251 DEB", "OBJECT_ID": "1993-036E", "EPOCH": "2025-12-24T03:22:05.395008", "MEAN_MOTION": 14.32583756, "ECCENTRICITY": 0.0015618, "INCLINATION": 74.0376, "RA_OF_ASC_NODE": 302.7971, "ARG_OF_PERICENTER": 314.2871, "MEAN_ANOMALY": 150.2563, "EPHEMERIS_TYPE": 0, "CLASSIFICATION_TYPE": "U", "NORAD_CAT_ID": 33757, "ELEMENT_SET_NO": 999, "REV_AT_EPOCH": 88159, "BSTAR": 4.6837e-05, "MEAN_MOTION_DOT": 1.01e-06, "MEAN_MOTION_DDOT": 0}, "tle": {"line1": "1 33757U 93036E   25358.14034022  .00000101  00000+0  46837-4 0  9998", "line2": "2 33757  74.0376 302.7971 0015618 314.2871 150.2563 14.32583756881597"}}, "geometry": {"type": "Point", "coordinates": [-44.27343504955805, 39.03065692064982]}}, {"type": "Feature", "properties": {"norad_id": 33758, "name": "COSMOS 2251 DEB", "group": "cosmos-2251-debris", "lat": 61.017927365807274, "lon": -135.8072958101268, "alt_km": 725.8163191240892, "timestamp": "2025-12-24T09:46:31.397172+00:00", "meta": {"OBJECT_NAME": "COSMOS 2251 DEB", "OBJECT_ID": "1993-036F", "EPOCH": "2025-12-23T22:27:50.406048", "MEAN_MOTION": 14.51656106, "ECCENTRICITY": 0.0017178, "INCLINATION": 74.0261, "RA_OF_ASC_NODE": 193.9401, "ARG_OF_PERICENTER": 259.8682, "MEAN_ANOMALY": 223.5939, "EPHEMERIS_TYPE": 0, "CLASSIFICATION_TYPE": "U", "NORAD_CAT_ID": 33758, "ELEMENT_SET_NO": 999, "REV_AT_EPOCH": 88467, "BSTAR": 0.00077284, "MEAN_MOTION_DOT": 3.078e-05, "MEAN_MOTION_DDOT": 0}, "tle": {"line1": "1 33758U 93036F   25357.93600007  .00003078  00000+0  77284-3 0  9992", "line2": "2 33758  74.0261 193.9401 0017178 259.8682 223.5939 14.51656106884670"}}, "geometry": {"type": "Point", "coordinates": [-135.8072958101268, 61.017927365807274]}}, {"type": "Feature", "properties": {"norad_id": 33760, "name": "COSMOS 2251 DEB", "group": "cosmos-2251-debris", "lat": 54.695892873595476, "lon": -76.10692459029566, "alt_km": 760.5178749223396, "timestamp": "2025-12-24T09:46:31.397184+00:00", "meta": {"OBJECT_NAME": "COSMOS 2251 DEB", "OBJECT_ID": "1993-036H", "EPOCH": "2025-12-24T03:19:27.613056", "MEAN_MOTION": 14.35679872, "ECCENTRICITY": 0.0020392, "INCLINATION": 74.0319, "RA_OF_ASC_NODE": 260.5368, "ARG_OF_PERICENTER": 356.1587, "MEAN_ANOMALY": 113.0927, "EPHEMERIS_TYPE": 0, "CLASSIFICATION_TYPE": "U", "NORAD_CAT_ID": 33760, "ELEMENT_SET_NO": 999, "REV_AT_EPOCH": 88288, "BSTAR": 0.0001039, "MEAN_MOTION_DOT": 2.74e-06, "MEAN_MOTION_DDOT": 0}, "tle": {"line1": "1 33760U 93036H   25358.13851404  .00000274  00000+0  10390-3 0  9997", "line2": "2 33760  74.0319 260.5368 0020392 356.1587 113.0927 14.35679872882885"}}, "geometry": {"type": "Point", "coordinates": [-76.10692459029566, 54.695892873595476]}}, {"type": "Feature", "properties": {"norad_id": 33761, "name": "COSMOS 2251 DEB", "group": "cosmos-2251-debris", "lat": -73.13396016965496, "lon": 159.73839243918252, "alt_km": 743.0994263836856, "timestamp": "2025-12-24T09:46:31.397196+00:00", "meta": {"OBJECT_NAME": "COSMOS 2251 DEB", "OBJECT_ID": "1993-036J", "EPOCH": "2025-12-24T02:25:31.431072", "MEAN_MOTION": 14.42574902, "ECCENTRICITY": 0.0023318, "INCLINATION": 74.0349, "RA_OF_ASC_NODE": 231.0836, "ARG_OF_PERICENTER": 309.7367, "MEAN_ANOMALY": 176.1109, "EPHEMERIS_TYPE": 0, "CLASSIFICATION_TYPE": "U", "NORAD_CAT_ID": 33761, "ELEMENT_SET_NO": 999, "REV_AT_EPOCH": 88398, "BSTAR": 0.00035685, "MEAN_MOTION_DOT": 1.162e-05, "MEAN_MOTION_DDOT": 0}, "tle": {"line1": "1 33761U 93036J   25358.10105823  .00001162  00000+0  35685-3 0  9993", "line2": "2 33761  74.0349 231.0836 0023318 309.7367 176.1109 14.42574902883983"}}, "geometry": {"type": "Point", "coordinates": [159.73839243918252, -73.13396016965496]}}, {"type": "Feature", "properties": {"norad_id": 33762, "name": "COSMOS 2251 DEB", "group": "cosmos-2251-debris", "lat": -73.98040225581644, "lon": -156.56703969400468, "alt_km": 783.7798458373536, "timestamp": "2025-12-24T09:46:31.397208+00:00", "meta": {"OBJECT_NAME": "COSMOS 2251 DEB", "OBJECT_ID": "1993-036K", "EPOCH": "2025-12-23T22:46:57.601056", "MEAN_MOTION": 14.33667096, "ECCENTRICITY": 0.001546, "INCLINATION": 74.0421, "RA_OF_ASC_NODE": 289.5329, "ARG_OF_PERICENTER": 348.3112, "MEAN_ANOMALY": 80.133, "EPHEMERIS_TYPE": 0, "CLASSIFICATION_TYPE": "U", "NORAD_CAT_ID": 33762, "ELEMENT_SET_NO": 999, "REV_AT_EPOCH": 88208, "BSTAR": 5.6755e-05, "MEAN_MOTION_DOT": 1.31e-06, "MEAN_MOTION_DDOT": 0}, "tle": {"line1": "1 33762U 93036K   25357.94927779  .00000131  00000+0  56755-4 0  9994", "line2": "2 33762  74.0421 289.5329 0015460 348.3112  80.1330 14.33667096882083"}}, "geometry": {"type": "Point", "coordinates": [-156.56703969400468, -73.98040225581644]}}, {"type": "Feature", "properties": {"norad_id": 33764, "name": "COSMOS 2251 DEB", "group": "cosmos-2251-debris", "lat": -58.696314642810705, "lon": -136.97462467204917, "alt_km": 764.652373669508, "timestamp": "2025-12-24T09:46:31.397219+00:00", "meta": {"OBJECT_NAME": "COSMOS 2251 DEB", "OBJECT_ID": "1993-036M", "EPOCH": "2025-12-24T02:02:29.153760", "MEAN_MOTION": 14.39532308, "ECCENTRICITY": 0.0023426, "INCLINATION": 74.0332, "RA_OF_ASC_NODE": 251.7077, "ARG_OF_PERICENTER": 215.2701, "MEAN_ANOMALY": 212.4855, "EPHEMERIS_TYPE": 0, "CLASSIFICATION_TYPE": "U", "NORAD_CAT_ID": 33764, "ELEMENT_SET_NO": 999, "REV_AT_EPOCH": 88320, "BSTAR": 0.00027829, "MEAN_MOTION_DOT": 8.44e-06, "MEAN_MOTION_DDOT": 0}, "tle": {"line1": "1 33764U 93036M   25358.08505965  .00000844  00000+0  27829-3 0  9991", "line2": "2 33764  74.0332 251.7077 0023426 215.2701 212.4855 14.39532308883204"}}, "geometry": {"type": "Point", "coordinates": [-136.97462467204917, -58.696314642810705]}}, {"type": "Feature", "properties": {"norad_id": 33765, "name": "COSMOS 2251 DEB", "group": "cosmos-2251-debris", "lat": -34.59074005186505, "lon": -19.624143332320415, "alt_km": 498.99646531507005, "timestamp": "2025-12-24T09:46:31.397231+00:00", "meta": {"OBJECT_NAME": "COSMOS 2251 DEB", "OBJECT_ID": "1993-036N", "EPOCH": "2025-12-23T20:47:48.108192", "MEAN_MOTION": 15.10574288, "ECCENTRICITY": 0.0064887, "INCLINATION": 74.009, "RA_OF_ASC_NODE": 150.0883, "ARG_OF_PERICENTER": 240.4911, "MEAN_ANOMALY": 276.3386, "EPHEMERIS_TYPE": 0, "CLASSIFICATION_TYPE": "U", "NORAD_CAT_ID": 33765, "ELEMENT_SET_NO": 999, "REV_AT_EPOCH": 89786, "BSTAR": 0.0015907, "MEAN_MOTION_DOT": 0.00027676, "MEAN_MOTION_DDOT": 0}, "tle": {"line1": "1 33765U 93036N   25357.86652903  .00027676  00000+0  15907-2 0  9997", "line2": "2 33765  74.0090 150.0883 0064887 240.4911 276.3386 15.10574288897869"}}, "geometry": {"type": "Point", "coordinates": [-19.624143332320415, -34.59074005186505]}}, {"type": "Feature", "properties": {"norad_id": 33766, "name": "COSMOS 2251 DEB", "group": "cosmos-2251-debris", "lat": 32.29985031399429, "lon": -76.52951444948788, "alt_km": 818.1862984692862, "timestamp": "2025-12-24T09:46:31.397242+00:00", "meta": {"OBJECT_NAME": "COSMOS 2251 DEB", "OBJECT_ID": "1993-036P", "EPOCH": "2025-12-24T00:43:38.692416", "MEAN_MOTION": 14.34966024, "ECCENTRICITY": 0.0064753, "INCLINATION": 74.186, "RA_OF_ASC_NODE": 114.4762, "ARG_OF_PERICENTER": 314.7608, "MEAN_ANOMALY": 44.8286, "EPHEMERIS_TYPE": 0, "CLASSIFICATION_TYPE": "U", "NORAD_CAT_ID": 33766, "ELEMENT_SET_NO": 999, "REV_AT_EPOCH": 87907, "BSTAR": 0.00051051, "MEAN_MOTION_DOT": 1.462e-05, "MEAN_MOTION_DDOT": 0}, "tle": {"line1": "1 33766U 93036P   25358.03030894  .00001462  00000+0  51051-3 0  9993", "line2": "2 33766  74.1860 114.4762 0064753 314.7608  44.8286 14.34966024879074"}}, "geometry": {"type": "Point", "coordinates": [-76.52951444948788, 32.29985031399429]}}, {"type": "Feature", "properties": {"norad_id": 33768, "name": "COSMOS 2251 DEB", "group": "cosmos-2251-debris", "lat": 66.00361967737489, "lon": -18.88221573823673, "alt_km": 1127.3340602550697, "timestamp": "2025-12-24T09:46:31.397254+00:00", "meta": {"OBJECT_NAME": "COSMOS 2251 DEB", "OBJECT_ID": "1993-036R", "EPOCH": "2025-12-24T01:11:01.106304", "MEAN_MOTION": 13.58464187, "ECCENTRICITY": 0.0366824, "INCLINATION": 74.0665, "RA_OF_ASC_NODE": 201.6153, "ARG_OF_PERICENTER": 356.8922, "MEAN_ANOMALY": 157.2299, "EPHEMERIS_TYPE": 0, "CLASSIFICATION_TYPE": "U", "NORAD_CAT_ID": 33768, "ELEMENT_SET_NO": 999, "REV_AT_EPOCH": 83449, "BSTAR": 0.00031715, "MEAN_MOTION_DOT": 3.37e-06, "MEAN_MOTION_DDOT": 0}, "tle": {"line1": "1 33768U 93036R   25358.04931836  .00000337  00000+0  31715-3 0  9997", "line2": "2 33768  74.0665 201.6153 0366824 356.8922 157.2299 13.58464187834499"}}, "geometry": {"type": "Point", "coordinates": [-18.88221573823673, 66.00361967737489]}}]}